{
    "links": {
        "self": "http://www.neowsapp.com/rest/v1/neo/54049766?api_key=iIulBulltgU6a56xZRHN4H3l9WmuAYTsLGpBGhQ2"
    },
    "id": "54049766",
    "neo_reference_id": "54049766",
    "name": "(2020 OE4)",
    "designation": "2020 OE4",
    "nasa_jpl_url": "http://ssd.jpl.nasa.gov/sbdb.cgi?sstr=54049766",
    "absolute_magnitude_h": 22.427,
    "estimated_diameter": {
        "kilometers": {
            "estimated_diameter_min": 0.086927057,
            "estimated_diameter_max": 0.1943748086
        },
        "meters": {
            "estimated_diameter_min": 86.9270570389,
            "estimated_diameter_max": 194.374808623
        },
        "miles": {
            "estimated_diameter_min": 0.0540139524,
            "estimated_diameter_max": 0.1207788692
        },
        "feet": {
            "estimated_diameter_min": 285.1937658156,
            "estimated_diameter_max": 637.7126471227
        }
    },
    "is_potentially_hazardous_asteroid": false,
    "close_approach_data": [
        {
            "close_approach_date": "2020-08-14",
            "close_approach_date_full": "2020-Aug-14 20:28",
            "epoch_date_close_approach": 1597436880000,
            "relative_velocity": {
                "kilometers_per_second": "10.9997048509",
                "kilometers_per_hour": "39598.9374632713",
                "miles_per_hour": "24605.2397809977"
            },
            "miss_distance": {
                "astronomical": "0.0643022029",
                "lunar": "25.0135569281",
                "kilometers": "9619472.590147823",
                "miles": "5977263.0981450374"
            },
            "orbiting_body": "Earth"
        }
    ],
    "orbital_data": {
        "orbit_id": "14",
        "orbit_determination_date": "2020-09-30 05:58:30",
        "first_observation_date": "2020-07-24",
        "last_observation_date": "2020-08-12",
        "data_arc_in_days": 19,
        "observations_used": 114,
        "orbit_uncertainty": "8",
        "minimum_orbit_intersection": ".0609891",
        "jupiter_tisserand_invariant": "4.045",
        "epoch_osculation": "2459060.5",
        "eccentricity": ".4703725118015268",
        "semi_major_axis": "1.707805987712786",
        "inclination": "9.088899059252217",
        "ascending_node_longitude": "163.7170365337177",
        "orbital_period": "815.1850844267304",
        "perihelion_distance": ".9045009956026354",
        "perihelion_argument": "201.2687391062048",
        "aphelion_distance": "2.511110979822936",
        "perihelion_time": "2459108.484966134082",
        "mean_anomaly": "338.8089991607027",
        "mean_motion": ".4416175011999464",
        "equinox": "J2000",
        "orbit_class": {
            "orbit_class_type": "APO",
            "orbit_class_description": "Near-Earth asteroid orbits which cross the Earth’s orbit similar to that of 1862 Apollo",
            "orbit_class_range": "a (semi-major axis) > 1.0 AU; q (perihelion) < 1.017 AU"
        }
    },
    "is_sentry_object": false
}